NORAD_CAT_ID,OBJECT_NAME,OBJECT_TYPE,EPOCH,MEAN_MOTION,ECCENTRICITY,INCLINATION,RA_OF_ASC_NODE,ARG_OF_PERICENTER,MEAN_ANOMALY,BSTAR,MEAN_MOTION_DOT,MEAN_MOTION_DDOT,TLE_LINE0,TLE_LINE1,TLE_LINE2,SEMIMAJOR_AXIS,PERIOD,APOGEE,PERIGEE,DECAYED
54059.0,STARLINK-5173,PAYLOAD,2023-10-02 13:14:24,15.08837346,0.0001667,53.2184,15.6652,82.3197,277.7985,0.0006968,0.00010818,0.0,0 STARLINK-5173,1 54059U 22136J   23275.55167047  .00010818  00000-0  69680-3 0  9991,2 54059  53.2184  15.6652 0001667  82.3197 277.7985 15.08837346 53090,6917.889,95.438,540.907,538.6,0.0
54059.0,STARLINK-5173,PAYLOAD,2023-10-03 00:22:06,15.08837555,0.0001665,53.2181,13.5839,77.1653,282.9525,0.00080607,0.00012563,0.0,0 STARLINK-5173,1 54059U 22136J   23276.01535448  .00012563  00000-0  80607-3 0  9998,2 54059  53.2181  13.5839 0001665  77.1653 282.9525 15.08837555 53166,6917.888,95.438,540.905,538.601,0.0
54059.0,STARLINK-5173,PAYLOAD,2023-10-03 13:05:11,15.08853912,0.000168,53.2183,11.2049,76.8578,283.2602,0.00091647,0.00014333,0.0,0 STARLINK-5173,1 54059U 22136J   23276.54527173  .00014333  00000-0  91647-3 0  9995,2 54059  53.2183  11.2049 0001680  76.8578 283.2602 15.08853912 52765,6917.838,95.437,540.865,538.541,0.0
54059.0,STARLINK-5173,PAYLOAD,2023-10-04 09:45:12,15.08851484,0.0001561,53.2182,7.3395,67.6508,292.465,0.00042236,6.442e-05,0.0,0 STARLINK-5173,1 54059U 22136J   23277.40638955  .00006442  00000-0  42236-3 0  9994,2 54059  53.2182   7.3395 0001561  67.6508 292.4650 15.08851484 53378,6917.845,95.437,540.79,538.63,0.0
54059.0,STARLINK-5173,PAYLOAD,2023-10-04 12:55:58,15.08860443,0.0001644,53.2185,6.7411,74.9145,285.2029,0.00054085,8.335e-05,0.0,0 STARLINK-5173,1 54059U 22136J   23277.53886635  .00008335  00000-0  54085-3 0  9996,2 54059  53.2185   6.7411 0001644  74.9145 285.2029 15.08860443 52917,6917.818,95.436,540.82,538.546,0.0
54059.0,STARLINK-5173,PAYLOAD,2023-10-05 11:11:22,15.08847316,0.0002011,53.2195,2.585,108.0616,252.0595,0.00044778,6.847e-05,0.0,0 STARLINK-5173,1 54059U 22136J   23278.46622873  .00006847  00000-0  44778-3 0  9995,2 54059  53.2195   2.5850 0002011 108.0616 252.0595 15.08847316 53533,6917.858,95.437,541.114,538.332,0.0
54059.0,STARLINK-5173,PAYLOAD,2023-10-05 12:46:45,15.08850717,0.0001849,53.219,2.2876,103.1101,257.0098,0.00067382,0.00010455,0.0,0 STARLINK-5173,1 54059U 22136J   23278.53246836  .00010455  00000-0  67382-3 0  9990,2 54059  53.2190   2.2876 0001849 103.1101 257.0098 15.08850717 53066,6917.848,95.437,540.992,538.434,0.0
54059.0,STARLINK-5173,PAYLOAD,2023-10-06 11:02:09,15.088344,0.000129,53.2178,358.1214,103.047,257.0666,0.00028475,4.246e-05,0.0,0 STARLINK-5173,1 54059U 22136J   23279.45983575  .00004246  00000-0  28475-3 0  9991,2 54059  53.2178 358.1214 0001290 103.0470 257.0666 15.08834400 53689,6917.898,95.438,540.655,538.87,0.0
54059.0,STARLINK-5173,PAYLOAD,2023-10-06 12:37:32,15.08834664,0.0001318,53.2179,357.8244,104.6347,255.4791,0.00032194,4.839e-05,0.0,0 STARLINK-5173,1 54059U 22136J   23279.52607610  .00004839  00000-0  32194-3 0  9993,2 54059  53.2179 357.8244 0001318 104.6347 255.4791 15.08834664 53212,6917.897,95.438,540.673,538.85,0.0
54059.0,STARLINK-5173,PAYLOAD,2023-10-07 14:03:42,15.0885917,0.0001261,53.2177,353.0635,97.898,262.2155,0.00091333,0.00014285,0.0,0 STARLINK-5173,1 54059U 22136J   23280.58591355  .00014285  00000-0  91333-3 0  9995,2 54059  53.2177 353.0635 0001261  97.8980 262.2155 15.08859170 53371,6917.822,95.436,540.559,538.814,0.0
54059.0,STARLINK-5173,PAYLOAD,2023-10-07 22:00:38,15.0884928,0.0001883,53.2178,351.5797,80.1141,280.0064,0.00047331,7.255e-05,0.0,0 STARLINK-5173,1 54059U 22136J   23280.91711713  .00007255  00000-0  47331-3 0  9992,2 54059  53.2178 351.5797 0001883  80.1141 280.0064 15.08849280 53422,6917.852,95.437,541.02,538.414,0.0
54059.0,STARLINK-5173,PAYLOAD,2023-10-08 10:43:43,15.0884582,0.0001432,53.218,349.2024,77.276,282.8392,0.0003396,5.122e-05,0.0,0 STARLINK-5173,1 54059U 22136J   23281.44703576  .00005122  00000-0  33960-3 0  9993,2 54059  53.2180 349.2024 0001432  77.2760 282.8392 15.08845820 53987,6917.863,95.437,540.718,538.737,0.0
54059.0,STARLINK-5173,PAYLOAD,2023-10-08 12:19:06,15.08851553,0.0001386,53.2177,348.9043,74.9635,285.1511,0.0006157,9.528e-05,0.0,0 STARLINK-5173,1 54059U 22136J   23281.51327471  .00009528  00000-0  61570-3 0  9999,2 54059  53.2177 348.9043 0001386  74.9635 285.1511 15.08851553 53511,6917.845,95.437,540.669,538.751,0.0
54059.0,STARLINK-5173,PAYLOAD,2023-10-09 08:59:07,15.08847384,0.0001604,53.2174,345.0383,84.1676,275.9499,0.00068467,0.00010627,0.0,0 STARLINK-5173,1 54059U 22136J   23282.37439814  .00010627  00000-0  68467-3 0  9993,2 54059  53.2174 345.0383 0001604  84.1676 275.9499 15.08847384 54121,6917.858,95.437,540.832,538.613,0.0
54059.0,STARLINK-5173,PAYLOAD,2023-10-09 10:34:31,15.08844982,0.0001517,53.2172,344.7419,82.1804,277.9361,0.00053084,8.172e-05,0.0,0 STARLINK-5173,1 54059U 22136J   23282.44063795  .00008172  00000-0  53084-3 0  9993,2 54059  53.2172 344.7419 0001517  82.1804 277.9361 15.08844982 53657,6917.865,95.437,540.78,538.681,0.0
54059.0,STARLINK-5173,PAYLOAD,2023-10-09 16:56:03,15.08864249,0.0001241,53.2179,343.5517,95.0886,265.0248,0.0010394,0.00016304,0.0,0 STARLINK-5173,1 54059U 22136J   23282.70559129  .00016304  00000-0  10394-2 0  9995,2 54059  53.2179 343.5517 0001241  95.0886 265.0248 15.08864249 53691,6917.806,95.436,540.53,538.813,0.0
54059.0,STARLINK-5173,PAYLOAD,2023-10-10 10:25:17,15.08858758,0.0001603,53.2184,340.2822,93.5527,266.5649,0.0019919,0.00031572,0.0,0 STARLINK-5173,1 54059U 22136J   23283.43423408  .00031572  00000-0  19919-2 0  9992,2 54059  53.2184 340.2822 0001603  93.5527 266.5649 15.08858758 54282,6917.823,95.436,540.797,538.579,0.0
54059.0,STARLINK-5173,PAYLOAD,2023-10-10 13:36:03,15.08872517,0.0001581,53.2182,339.6865,94.5691,265.5482,0.0024451,0.00038875,0.0,0 STARLINK-5173,1 54059U 22136J   23283.56671131  .00038875  00000-0  24451-2 0  9994,2 54059  53.2182 339.6865 0001581  94.5691 265.5482 15.08872517 53829,6917.781,95.435,540.74,538.552,0.0
54059.0,STARLINK-5173,PAYLOAD,2023-10-11 10:16:05,15.08834702,0.0001548,53.218,335.8177,84.0049,276.112,0.0010427,0.00016343,0.0,0 STARLINK-5173,1 54059U 22136J   23284.42784179  .00016343  00000-0  10427-2 0  9991,2 54059  53.2180 335.8177 0001548  84.0049 276.1120 15.08834702 54434,6917.897,95.438,540.832,538.691,0.0
54059.0,STARLINK-5173,PAYLOAD,2023-10-11 13:26:51,15.08836239,0.0001623,53.2182,335.2244,78.8748,281.2426,0.0010192,0.00015968,0.0,0 STARLINK-5173,1 54059U 22136J   23284.56032301  .00015968  00000-0  10192-2 0  9990,2 54059  53.2182 335.2244 0001623  78.8748 281.2426 15.08836239 53977,6917.892,95.438,540.88,538.634,0.0
54059.0,STARLINK-5173,PAYLOAD,2023-10-12 03:45:20,15.08840366,0.0001742,53.2181,332.5473,88.8275,271.2916,0.00056552,8.724e-05,0.0,0 STARLINK-5173,1 54059U 22136J   23285.15648472  .00008724  00000-0  56552-3 0  9991,2 54059  53.2181 332.5473 0001742  88.8275 271.2916 15.08840366 54541,6917.879,95.438,540.949,538.539,0.0
54059.0,STARLINK-5173,PAYLOAD,2023-10-12 13:17:38,15.0886588,0.000171,53.2179,330.7651,75.1553,284.9628,0.0015203,0.00024008,0.0,0 STARLINK-5173,1 54059U 22136J   23285.55392063  .00024008  00000-0  15203-2 0  9997,2 54059  53.2179 330.7651 0001710  75.1553 284.9628 15.08865880 54122,6917.801,95.436,540.849,538.483,0.0
54059.0,STARLINK-5173,PAYLOAD,2023-10-12 19:39:11,15.08851441,0.000212,53.2183,329.5738,74.4724,285.6502,0.00083571,0.00013042,0.0,0 STARLINK-5173,1 54059U 22136J   23285.81888342  .00013042  00000-0  83571-3 0  9996,2 54059  53.2183 329.5738 0002120  74.4724 285.6502 15.08851441 54168,6917.845,95.437,541.177,538.244,0.0
54059.0,STARLINK-5173,PAYLOAD,2023-10-13 02:00:43,15.08842414,0.0001634,53.2176,328.387,85.7718,274.3461,0.00021306,3.105e-05,0.0,0 STARLINK-5173,1 54059U 22136J   23286.08384238  .00003105  00000-0  21306-3 0  9998,2 54059  53.2176 328.3870 0001634  85.7718 274.3461 15.08842414 54687,6917.873,95.437,540.868,538.608,0.0
54059.0,STARLINK-5173,PAYLOAD,2023-10-13 09:57:39,15.08854818,0.0001673,53.2173,326.9008,85.109,275.0093,0.00078757,0.00012273,0.0,0 STARLINK-5173,1 54059U 22136J   23286.41504025  .00012273  00000-0  78757-3 0  9991,2 54059  53.2173 326.9008 0001673  85.1090 275.0093 15.08854818 54254,6917.835,95.437,540.857,538.543,0.0
54059.0,STARLINK-5173,PAYLOAD,2023-10-13 19:29:58,15.08851957,0.0001437,53.2166,325.1141,77.7693,282.346,0.00068645,0.00010657,0.0,0 STARLINK-5173,1 54059U 22136J   23286.81247950  .00010657  00000-0  68645-3 0  9995,2 54059  53.2166 325.1141 0001437  77.7693 282.3460 15.08851957 54316,6917.844,95.437,540.703,538.715,0.0
54059.0,STARLINK-5173,PAYLOAD,2023-10-14 09:48:26,15.08848633,0.0001759,53.2172,322.441,91.095,269.0244,0.00013056,1.791e-05,0.0,0 STARLINK-5173,1 54059U 22136J   23287.40863798  .00001791  00000-0  13056-3 0  9990,2 54059  53.2172 322.4410 0001759  91.0950 269.0244 15.08848633 54885,6917.854,95.437,540.936,538.502,0.0
54059.0,STARLINK-5173,PAYLOAD,2023-10-14 11:23:49,15.08850344,0.000173,53.2171,322.1433,90.4467,269.6723,0.00017179,2.448e-05,0.0,0 STARLINK-5173,1 54059U 22136J   23287.47487690  .00002448  00000-0  17179-3 0  9990,2 54059  53.2171 322.1433 0001730  90.4467 269.6723 15.08850344 54410,6917.849,95.437,540.911,538.517,0.0
54059.0,STARLINK-5173,PAYLOAD,2023-10-15 11:14:38,15.0882105,0.0001541,53.2171,317.6835,92.48,267.6368,-0.00014749,-2.633e-05,0.0,0 STARLINK-5173,1 54059U 22136J   23288.46849774 -.00002633  00000-0 -14749-3 0  9993,2 54059  53.2171 317.6835 0001541  92.4800 267.6368 15.08821050 55043,6917.938,95.439,540.869,538.737,0.0
54059.0,STARLINK-5173,PAYLOAD,2023-10-15 19:11:34,15.08827138,0.0001498,53.217,316.1972,88.6834,271.433,6.7854e-05,7.92e-06,0.0,0 STARLINK-5173,1 54059U 22136J   23288.79969975  .00000792  00000-0  67854-4 0  9993,2 54059  53.2170 316.1972 0001498  88.6834 271.4330 15.08827138 54610,6917.92,95.438,540.821,538.748,0.0
